*******************************************************************************
Ephemeris / WWW_USER Mon Dec 26 18:10:03 2016 Pasadena, USA      / Horizons    
*******************************************************************************
Target body name: Moon (301)                      {source: DE431mx}
Center body name: Earth (399)                     {source: DE431mx}
Center-site name: (user defined site below)
*******************************************************************************
Start time      : A.D. 2022-Jan-01 00:00:00.0000 UT      
Stop  time      : A.D. 2022-May-02 00:00:00.0000 UT      
Step-size       : 2 minutes
*******************************************************************************
Target pole/equ : IAU_MOON                        {East-longitude +}
Target radii    : 1737.4 x 1737.4 x 1737.4 km     {Equator, meridian, pole}    
Center geodetic : 284.844200,39.9494000,-1.01E-12 {E-lon(deg),Lat(deg),Alt(km)}
Center cylindric: 284.844200,4896.31709,4073.6801 {E-lon(deg),Dxy(km),Dz(km)}
Center pole/equ : High-precision EOP model        {East-longitude +}
Center radii    : 6378.1 x 6378.1 x 6356.8 km     {Equator, meridian, pole}    
Target primary  : Earth
Vis. interferer : MOON (R_eq= 1737.400) km        {source: DE431mx}
Rel. light bend : Sun, EARTH                      {source: DE431mx}
Rel. lght bnd GM: 1.3271E+11, 3.9860E+05 km^3/s^2                              
Atmos refraction: NO (AIRLESS)
RA format       : HMS
Time format     : CAL 
RTS-only print  : NO       
EOP file        : eop.161226.p170319                                           
EOP coverage    : DATA-BASED 1962-JAN-20 TO 2016-DEC-26. PREDICTS-> 2017-MAR-18
Units conversion: 1 au= 149597870.700 km, c= 299792.458 km/s, 1 day= 86400.0 s 
Table cut-offs 1: Elevation (-90.0deg=NO ),Airmass (>38.000=NO), Daylight (NO )
Table cut-offs 2: Solar Elongation (  0.0,180.0=NO ),Local Hour Angle( 0.0=NO )
*******************************************************************************
 Date__(UT)__HR:MN     Azi_(a-appr)_Elev
****************************************
$$SOE
 2022-Jan-29 19:12 *m  234.2927  -0.6693
 2022-Jan-29 19:14 *s  234.6003  -0.9679
 2022-Jan-29 19:16 *   234.9068  -1.2677
 2022-Jan-29 19:18 *   235.2122  -1.5685
 2022-Jan-29 19:20 *   235.5165  -1.8704
 2022-Jan-29 19:22 *   235.8197  -2.1734
 2022-Jan-29 19:24 *   236.1218  -2.4775
 2022-Jan-29 19:26 *   236.4230  -2.7825
 2022-Jan-29 19:28 *   236.7230  -3.0887
 2022-Jan-29 19:30 *   237.0221  -3.3958
 2022-Jan-29 19:32 *   237.3202  -3.7039
 2022-Jan-29 19:34 *   237.6172  -4.0131
 2022-Jan-29 19:36 *   237.9133  -4.3232
 2022-Jan-29 19:38 *   238.2084  -4.6343
 2022-Jan-29 19:40 *   238.5026  -4.9463
 2022-Jan-29 19:42 *   238.7958  -5.2593
 2022-Jan-29 19:44 *   239.0881  -5.5732
 2022-Jan-29 19:46 *   239.3795  -5.8881
 2022-Jan-29 19:48 *   239.6700  -6.2039
 2022-Jan-29 19:50 *   239.9596  -6.5205
 2022-Jan-29 19:52 *   240.2483  -6.8381
 2022-Jan-29 19:54 *   240.5362  -7.1565
 2022-Jan-29 19:56 *   240.8232  -7.4758
 2022-Jan-29 19:58 *   241.1094  -7.7960
 2022-Jan-29 20:00 *   241.3948  -8.1170
 2022-Jan-29 20:02 *   241.6794  -8.4389
 2022-Jan-29 20:04 *   241.9632  -8.7615
 2022-Jan-29 20:06 *   242.2462  -9.0850
 2022-Jan-29 20:08 *   242.5284  -9.4093
 2022-Jan-29 20:10 *   242.8100  -9.7344
 2022-Jan-29 20:12 *   243.0908 -10.0603
 2022-Jan-29 20:14 *   243.3708 -10.3869
 2022-Jan-29 20:16 *   243.6502 -10.7143
 2022-Jan-29 20:18 *   243.9289 -11.0425
 2022-Jan-29 20:20 *   244.2069 -11.3714
 2022-Jan-29 20:22 *   244.4843 -11.7010
 2022-Jan-29 20:24 *   244.7610 -12.0314
 2022-Jan-29 20:26 *   245.0371 -12.3625
 2022-Jan-29 20:28 *   245.3126 -12.6943
 2022-Jan-29 20:30 *   245.5874 -13.0268
 2022-Jan-29 20:32 *   245.8618 -13.3600
 2022-Jan-29 20:34 *   246.1355 -13.6938
 2022-Jan-29 20:36 *   246.4087 -14.0283
 2022-Jan-29 20:38 *   246.6813 -14.3635
 2022-Jan-29 20:40 *   246.9535 -14.6994
 2022-Jan-29 20:42 *   247.2251 -15.0358
 2022-Jan-29 20:44 *   247.4962 -15.3729
 2022-Jan-29 20:46 *   247.7669 -15.7107
 2022-Jan-29 20:48 *   248.0371 -16.0490
 2022-Jan-29 20:50 *   248.3069 -16.3880
 2022-Jan-29 20:52 *   248.5763 -16.7275
 2022-Jan-29 20:54 *   248.8452 -17.0677
 2022-Jan-29 20:56 *   249.1138 -17.4084
 2022-Jan-29 20:58 *   249.3819 -17.7497
 2022-Jan-29 21:00 *   249.6498 -18.0915
 2022-Jan-29 21:02 *   249.9172 -18.4339
 2022-Jan-29 21:04 *   250.1844 -18.7769
 2022-Jan-29 21:06 *   250.4512 -19.1204
 2022-Jan-29 21:08 *   250.7178 -19.4644
 2022-Jan-29 21:10 *   250.9841 -19.8090
 2022-Jan-29 21:12 *   251.2501 -20.1541
 2022-Jan-29 21:14 *   251.5159 -20.4996
 2022-Jan-29 21:16 *   251.7815 -20.8457
 2022-Jan-29 21:18 *   252.0469 -21.1923
 2022-Jan-29 21:20 *   252.3120 -21.5393
 2022-Jan-29 21:22 *   252.5771 -21.8868
 2022-Jan-29 21:24 *   252.8419 -22.2348
 2022-Jan-29 21:26 *   253.1067 -22.5833
 2022-Jan-29 21:28 *   253.3713 -22.9322
 2022-Jan-29 21:30 *   253.6358 -23.2815
 2022-Jan-29 21:32 *   253.9003 -23.6313
 2022-Jan-29 21:34 *   254.1647 -23.9815
 2022-Jan-29 21:36 *   254.4291 -24.3322
 2022-Jan-29 21:38 *   254.6935 -24.6832
 2022-Jan-29 21:40 *   254.9579 -25.0347
 2022-Jan-29 21:42 *   255.2223 -25.3865
 2022-Jan-29 21:44 *   255.4867 -25.7388
 2022-Jan-29 21:46 *   255.7513 -26.0914
 2022-Jan-29 21:48 *   256.0159 -26.4444
 2022-Jan-29 21:50 *   256.2806 -26.7978
 2022-Jan-29 21:52 *   256.5455 -27.1515
 2022-Jan-29 21:54 *   256.8105 -27.5056
 2022-Jan-29 21:56 *   257.0757 -27.8600
 2022-Jan-29 21:58 *   257.3411 -28.2148
 2022-Jan-29 22:00 *   257.6067 -28.5699
 2022-Jan-29 22:02 *   257.8726 -28.9254
 2022-Jan-29 22:04 *   258.1387 -29.2811
 2022-Jan-29 22:06 *   258.4051 -29.6372
 2022-Jan-29 22:08 *   258.6719 -29.9936
 2022-Jan-29 22:10 *   258.9390 -30.3503
 2022-Jan-29 22:12 *   259.2064 -30.7072
 2022-Jan-29 22:14 *   259.4743 -31.0645
 2022-Jan-29 22:16 *   259.7426 -31.4220
 2022-Jan-29 22:18 C   260.0113 -31.7798
 2022-Jan-29 22:20 C   260.2805 -32.1378
 2022-Jan-29 22:22 C   260.5502 -32.4961
 2022-Jan-29 22:24 C   260.8204 -32.8547
 2022-Jan-29 22:26 C   261.0912 -33.2134
 2022-Jan-29 22:28 C   261.3626 -33.5725
 2022-Jan-29 22:30 C   261.6346 -33.9317
 2022-Jan-29 22:32 C   261.9072 -34.2912
 2022-Jan-29 22:34 C   262.1805 -34.6508
 2022-Jan-29 22:36 C   262.4545 -35.0107
 2022-Jan-29 22:38 C   262.7293 -35.3707
 2022-Jan-29 22:40 C   263.0048 -35.7310
 2022-Jan-29 22:42 C   263.2811 -36.0914
 2022-Jan-29 22:44 C   263.5583 -36.4520
 2022-Jan-29 22:46 N   263.8363 -36.8128
 2022-Jan-29 22:48 N   264.1153 -37.1737
 2022-Jan-29 22:50 N   264.3952 -37.5347
 2022-Jan-29 22:52 N   264.6760 -37.8959
 2022-Jan-29 22:54 N   264.9579 -38.2573
 2022-Jan-29 22:56 N   265.2409 -38.6187
 2022-Jan-29 22:58 N   265.5249 -38.9803
 2022-Jan-29 23:00 N   265.8101 -39.3420
 2022-Jan-29 23:02 N   266.0965 -39.7038
 2022-Jan-29 23:04 N   266.3841 -40.0656
 2022-Jan-29 23:06 N   266.6729 -40.4276
 2022-Jan-29 23:08 N   266.9631 -40.7896
 2022-Jan-29 23:10 N   267.2546 -41.1517
 2022-Jan-29 23:12 N   267.5475 -41.5139
 2022-Jan-29 23:14 N   267.8418 -41.8761
 2022-Jan-29 23:16 N   268.1377 -42.2383
 2022-Jan-29 23:18 A   268.4351 -42.6006
 2022-Jan-29 23:20 A   268.7341 -42.9628
 2022-Jan-29 23:22 A   269.0347 -43.3251
 2022-Jan-29 23:24 A   269.3371 -43.6874
 2022-Jan-29 23:26 A   269.6412 -44.0497
 2022-Jan-29 23:28 A   269.9471 -44.4120
 2022-Jan-29 23:30 A   270.2549 -44.7742
 2022-Jan-29 23:32 A   270.5647 -45.1364
 2022-Jan-29 23:34 A   270.8764 -45.4986
 2022-Jan-29 23:36 A   271.1902 -45.8607
 2022-Jan-29 23:38 A   271.5062 -46.2227
 2022-Jan-29 23:40 A   271.8243 -46.5846
 2022-Jan-29 23:42 A   272.1447 -46.9465
 2022-Jan-29 23:44 A   272.4674 -47.3082
 2022-Jan-29 23:46 A   272.7926 -47.6698
 2022-Jan-29 23:48 A   273.1202 -48.0313
 2022-Jan-29 23:50     273.4504 -48.3927
 2022-Jan-29 23:52     273.7832 -48.7539
 2022-Jan-29 23:54     274.1188 -49.1149
 2022-Jan-29 23:56     274.4572 -49.4757
 2022-Jan-29 23:58     274.7985 -49.8364
 2022-Jan-30 00:00     275.1428 -50.1968
 2022-Jan-30 00:02     275.4902 -50.5571
 2022-Jan-30 00:04     275.8407 -50.9171
 2022-Jan-30 00:06     276.1946 -51.2768
 2022-Jan-30 00:08     276.5518 -51.6362
 2022-Jan-30 00:10     276.9126 -51.9954
 2022-Jan-30 00:12     277.2769 -52.3543
 2022-Jan-30 00:14     277.6450 -52.7129
 2022-Jan-30 00:16     278.0169 -53.0711
 2022-Jan-30 00:18     278.3928 -53.4289
 2022-Jan-30 00:20     278.7727 -53.7864
 2022-Jan-30 00:22     279.1569 -54.1435
 2022-Jan-30 00:24     279.5455 -54.5002
 2022-Jan-30 00:26     279.9385 -54.8565
 2022-Jan-30 00:28     280.3362 -55.2123
 2022-Jan-30 00:30     280.7387 -55.5676
 2022-Jan-30 00:32     281.1461 -55.9224
 2022-Jan-30 00:34     281.5586 -56.2767
 2022-Jan-30 00:36     281.9765 -56.6305
 2022-Jan-30 00:38     282.3997 -56.9836
 2022-Jan-30 00:40     282.8286 -57.3362
 2022-Jan-30 00:42     283.2633 -57.6882
 2022-Jan-30 00:44     283.7041 -58.0394
 2022-Jan-30 00:46     284.1510 -58.3901
 2022-Jan-30 00:48     284.6044 -58.7399
 2022-Jan-30 00:50     285.0644 -59.0891
 2022-Jan-30 00:52     285.5312 -59.4375
 2022-Jan-30 00:54     286.0052 -59.7850
 2022-Jan-30 00:56     286.4865 -60.1317
 2022-Jan-30 00:58     286.9753 -60.4775
 2022-Jan-30 01:00     287.4721 -60.8224
 2022-Jan-30 01:02     287.9769 -61.1663
 2022-Jan-30 01:04     288.4901 -61.5092
 2022-Jan-30 01:06     289.0121 -61.8510
 2022-Jan-30 01:08     289.5430 -62.1918
 2022-Jan-30 01:10     290.0832 -62.5314
 2022-Jan-30 01:12     290.6331 -62.8698
 2022-Jan-30 01:14     291.1929 -63.2069
 2022-Jan-30 01:16     291.7631 -63.5428
 2022-Jan-30 01:18     292.3440 -63.8773
 2022-Jan-30 01:20     292.9359 -64.2103
 2022-Jan-30 01:22     293.5394 -64.5419
 2022-Jan-30 01:24     294.1547 -64.8719
 2022-Jan-30 01:26     294.7823 -65.2003
 2022-Jan-30 01:28     295.4226 -65.5270
 2022-Jan-30 01:30     296.0762 -65.8520
 2022-Jan-30 01:32     296.7434 -66.1751
 2022-Jan-30 01:34     297.4248 -66.4962
